{
  "type": "FeatureCollection",
  "features": [
    {
      "type": "Feature",
      "properties": {
        "norad_id": 66899,
        "name": "STARLINK-36064",
        "group": "last-30-days",
        "lat": -3.963417762127717,
        "lon": 40.56918517586484,
        "alt_km": 339.482091310505,
        "timestamp": "2025-12-18T17:50:13.701542+00:00",
        "meta_object_name": "STARLINK-36064",
        "meta_object_id": "2025-283X",
        "meta_epoch": "2025-12-18T06:00:02.999808",
        "meta_mean_motion": 15.79078086,
        "meta_eccentricity": 9.175e-05,
        "meta_inclination": 53.1572,
        "meta_ra_of_asc_node": 46.0098,
        "meta_arg_of_pericenter": 84.3992,
        "meta_mean_anomaly": 347.1399,
        "meta_ephemeris_type": 0,
        "meta_classification_type": "U",
        "meta_norad_cat_id": 66899,
        "meta_element_set_no": 999,
        "meta_rev_at_epoch": 325,
        "meta_bstar": -0.010215277,
        "meta_mean_motion_dot": -0.01619078,
        "meta_mean_motion_ddot": 0,
        "tle_line1": "1 66899U 25283X   25352.25003472 -.01619078  00000+0 -10215-1 0  9991",
        "tle_line2": "2 66899  53.1572  46.0098 0000917  84.3992 347.1399 15.79078086  3259"
      },
      "geometry": {
        "type": "Point",
        "coordinates": [
          40.56918517586484,
          -3.963417762127717
        ]
      }
    },
    {
      "type": "Feature",
      "properties": {
        "norad_id": 66900,
        "name": "STARLINK-36074",
        "group": "last-30-days",
        "lat": -2.146271235316274,
        "lon": 41.93107500282878,
        "alt_km": 339.54690607959037,
        "timestamp": "2025-12-18T17:50:13.701552+00:00",
        "meta_object_name": "STARLINK-36074",
        "meta_object_id": "2025-283Y",
        "meta_epoch": "2025-12-18T06:00:02.999808",
        "meta_mean_motion": 15.78983619,
        "meta_eccentricity": 0.00010933,
        "meta_inclination": 53.1544,
        "meta_ra_of_asc_node": 46.004,
        "meta_arg_of_pericenter": 73.472,
        "meta_mean_anomaly": 0.5237,
        "meta_ephemeris_type": 0,
        "meta_classification_type": "U",
        "meta_norad_cat_id": 66900,
        "meta_element_set_no": 999,
        "meta_rev_at_epoch": 331,
        "meta_bstar": -0.01035529,
        "meta_mean_motion_dot": -0.01632296,
        "meta_mean_motion_ddot": 0,
        "tle_line1": "1 66900U 25283Y   25352.25003472 -.01632296  00000+0 -10355-1 0  9996",
        "tle_line2": "2 66900  53.1544  46.0040 0001093  73.4720   0.5237 15.78983619  3316"
      },
      "geometry": {
        "type": "Point",
        "coordinates": [
          41.93107500282878,
          -2.146271235316274
        ]
      }
    },
    {
      "type": "Feature",
      "properties": {
        "norad_id": 66901,
        "name": "STARLINK-36043",
        "group": "last-30-days",
        "lat": -0.4137675395320108,
        "lon": 43.22677021769212,
        "alt_km": 339.55902056162995,
        "timestamp": "2025-12-18T17:50:13.701569+00:00",
        "meta_object_name": "STARLINK-36043",
        "meta_object_id": "2025-283Z",
        "meta_epoch": "2025-12-18T06:00:02.999808",
        "meta_mean_motion": 15.78925342,
        "meta_eccentricity": 8.637e-05,
        "meta_inclination": 53.1546,
        "meta_ra_of_asc_node": 45.9993,
        "meta_arg_of_pericenter": 89.1921,
        "meta_mean_anomaly": 347.0843,
        "meta_ephemeris_type": 0,
        "meta_classification_type": "U",
        "meta_norad_cat_id": 66901,
        "meta_element_set_no": 999,
        "meta_rev_at_epoch": 331,
        "meta_bstar": -0.01047442,
        "meta_mean_motion_dot": -0.01678003,
        "meta_mean_motion_ddot": 0,
        "tle_line1": "1 66901U 25283Z   25352.25003472 -.01678003  00000+0 -10474-1 0  9995",
        "tle_line2": "2 66901  53.1546  45.9993 0000863  89.1921 347.0843 15.78925342  3316"
      },
      "geometry": {
        "type": "Point",
        "coordinates": [
          43.22677021769212,
          -0.4137675395320108
        ]
      }
    },
    {
      "type": "Feature",
      "properties": {
        "norad_id": 66902,
        "name": "STARLINK-35983",
        "group": "last-30-days",
        "lat": 1.433149388764531,
        "lon": 44.60734550952477,
        "alt_km": 339.5927591768259,
        "timestamp": "2025-12-18T17:50:13.701580+00:00",
        "meta_object_name": "STARLINK-35983",
        "meta_object_id": "2025-283AA",
        "meta_epoch": "2025-12-18T06:00:02.999808",
        "meta_mean_motion": 15.78820059,
        "meta_eccentricity": 9.163e-05,
        "meta_inclination": 53.1544,
        "meta_ra_of_asc_node": 45.9942,
        "meta_arg_of_pericenter": 84.3957,
        "meta_mean_anomaly": 354.392,
        "meta_ephemeris_type": 0,
        "meta_classification_type": "U",
        "meta_norad_cat_id": 66902,
        "meta_element_set_no": 999,
        "meta_rev_at_epoch": 331,
        "meta_bstar": -0.0106284,
        "meta_mean_motion_dot": -0.01692643,
        "meta_mean_motion_ddot": 0,
        "tle_line1": "1 66902U 25283AA  25352.25003472 -.01692643  00000+0 -10628-1 0  9993",
        "tle_line2": "2 66902  53.1544  45.9942 0000916  84.3957 354.3920 15.78820059  3310"
      },
      "geometry": {
        "type": "Point",
        "coordinates": [
          44.60734550952477,
          1.433149388764531
        ]
      }
    },
    {
      "type": "Feature",
      "properties": {
        "norad_id": 66903,
        "name": "STARLINK-36077",
        "group": "last-30-days",
        "lat": 3.133474990052402,
        "lon": 45.88083420126341,
        "alt_km": 339.50685252122184,
        "timestamp": "2025-12-18T17:50:13.701590+00:00",
        "meta_object_name": "STARLINK-36077",
        "meta_object_id": "2025-283AB",
        "meta_epoch": "2025-12-18T06:00:02.999808",
        "meta_mean_motion": 15.7875699,
        "meta_eccentricity": 0.00010222,
        "meta_inclination": 53.1549,
        "meta_ra_of_asc_node": 45.9897,
        "meta_arg_of_pericenter": 71.8532,
        "meta_mean_anomaly": 9.1745,
        "meta_ephemeris_type": 0,
        "meta_classification_type": "U",
        "meta_norad_cat_id": 66903,
        "meta_element_set_no": 999,
        "meta_rev_at_epoch": 331,
        "meta_bstar": -0.01066707,
        "meta_mean_motion_dot": -0.01693843,
        "meta_mean_motion_ddot": 0,
        "tle_line1": "1 66903U 25283AB  25352.25003472 -.01693843  00000+0 -10667-1 0  9990",
        "tle_line2": "2 66903  53.1549  45.9897 0001022  71.8532   9.1745 15.78756990  3316"
      },
      "geometry": {
        "type": "Point",
        "coordinates": [
          45.88083420126341,
          3.133474990052402
        ]
      }
    },
    {
      "type": "Feature",
      "properties": {
        "norad_id": 66904,
        "name": "STARLINK-36059",
        "group": "last-30-days",
        "lat": 4.861312510037795,
        "lon": 47.18024384001651,
        "alt_km": 339.4697106347194,
        "timestamp": "2025-12-18T17:50:13.701600+00:00",
        "meta_object_name": "STARLINK-36059",
        "meta_object_id": "2025-283AC",
        "meta_epoch": "2025-12-18T06:00:02.999808",
        "meta_mean_motion": 15.78685696,
        "meta_eccentricity": 9.577e-05,
        "meta_inclination": 53.1571,
        "meta_ra_of_asc_node": 45.9851,
        "meta_arg_of_pericenter": 83.4305,
        "meta_mean_anomaly": 359.8905,
        "meta_ephemeris_type": 0,
        "meta_classification_type": "U",
        "meta_norad_cat_id": 66904,
        "meta_element_set_no": 999,
        "meta_rev_at_epoch": 331,
        "meta_bstar": -0.010733812,
        "meta_mean_motion_dot": -0.01698271,
        "meta_mean_motion_ddot": 0,
        "tle_line1": "1 66904U 25283AC  25352.25003472 -.01698271  00000+0 -10734-1 0  9996",
        "tle_line2": "2 66904  53.1571  45.9851 0000957  83.4305 359.8905 15.78685696  3312"
      },
      "geometry": {
        "type": "Point",
        "coordinates": [
          47.18024384001651,
          4.861312510037795
        ]
      }
    },
    {
      "type": "Feature",
      "properties": {
        "norad_id": 66905,
        "name": "STARLINK-36075",
        "group": "last-30-days",
        "lat": 6.504854439827833,
        "lon": 48.424331893891356,
        "alt_km": 339.333606693147,
        "timestamp": "2025-12-18T17:50:13.701610+00:00",
        "meta_object_name": "STARLINK-36075",
        "meta_object_id": "2025-283AD",
        "meta_epoch": "2025-12-18T06:00:02.999808",
        "meta_mean_motion": 15.78643762,
        "meta_eccentricity": 0.00010041,
        "meta_inclination": 53.1573,
        "meta_ra_of_asc_node": 45.9809,
        "meta_arg_of_pericenter": 70.2508,
        "meta_mean_anomaly": 15.21,
        "meta_ephemeris_type": 0,
        "meta_classification_type": "U",
        "meta_norad_cat_id": 66905,
        "meta_element_set_no": 999,
        "meta_rev_at_epoch": 331,
        "meta_bstar": -0.010795367,
        "meta_mean_motion_dot": -0.0170403,
        "meta_mean_motion_ddot": 0,
        "tle_line1": "1 66905U 25283AD  25352.25003472 -.01704030  00000+0 -10795-1 0  9995",
        "tle_line2": "2 66905  53.1573  45.9809 0001004  70.2508  15.2100 15.78643762  3319"
      },
      "geometry": {
        "type": "Point",
        "coordinates": [
          48.424331893891356,
          6.504854439827833
        ]
      }
    }
  ]
}